{
  "type": "FeatureCollection",
  "features": [
    {
      "type": "Feature",
      "properties": {
        "norad_id": 66491,
        "name": "STARLINK-35663",
        "group": "last-30-days",
        "lat": 3.966175165628363,
        "lon": -37.15185295522131,
        "alt_km": 414.7082113692786,
        "timestamp": "2025-12-08T23:34:02.739196+00:00",
        "meta_object_name": "STARLINK-35663",
        "meta_object_id": "2025-263G",
        "meta_epoch": "2025-12-08T14:00:01.999872",
        "meta_mean_motion": 15.50599725,
        "meta_eccentricity": 0.00017003,
        "meta_inclination": 42.9999,
        "meta_ra_of_asc_node": 149.4473,
        "meta_arg_of_pericenter": 276.6091,
        "meta_mean_anomaly": 189.7238,
        "meta_ephemeris_type": 0,
        "meta_classification_type": "U",
        "meta_norad_cat_id": 66491,
        "meta_element_set_no": 999,
        "meta_rev_at_epoch": 496,
        "meta_bstar": -0.0014093683,
        "meta_mean_motion_dot": -0.00082222,
        "meta_mean_motion_ddot": 0,
        "tle_line1": "1 66491U 25263G   25342.58335648 -.00082222  00000+0 -14094-2 0  9999",
        "tle_line2": "2 66491  42.9999 149.4473 0001700 276.6091 189.7238 15.50599725  4966"
      },
      "geometry": {
        "type": "Point",
        "coordinates": [
          -37.15185295522131,
          3.966175165628363
        ]
      }
    },
    {
      "type": "Feature",
      "properties": {
        "norad_id": 66492,
        "name": "STARLINK-35673",
        "group": "last-30-days",
        "lat": 2.6507354707563766,
        "lon": -35.73758807141765,
        "alt_km": 414.8362547348852,
        "timestamp": "2025-12-08T23:34:02.739208+00:00",
        "meta_object_name": "STARLINK-35673",
        "meta_object_id": "2025-263H",
        "meta_epoch": "2025-12-08T14:00:01.999872",
        "meta_mean_motion": 15.50587799,
        "meta_eccentricity": 0.00017744,
        "meta_inclination": 43.0001,
        "meta_ra_of_asc_node": 149.4424,
        "meta_arg_of_pericenter": 282.356,
        "meta_mean_anomaly": 185.8836,
        "meta_ephemeris_type": 0,
        "meta_classification_type": "U",
        "meta_norad_cat_id": 66492,
        "meta_element_set_no": 999,
        "meta_rev_at_epoch": 496,
        "meta_bstar": -0.00010986555,
        "meta_mean_motion_dot": -6.784e-05,
        "meta_mean_motion_ddot": 0,
        "tle_line1": "1 66492U 25263H   25342.58335648 -.00006784  00000+0 -10987-3 0  9997",
        "tle_line2": "2 66492  43.0001 149.4424 0001774 282.3560 185.8836 15.50587799  4964"
      },
      "geometry": {
        "type": "Point",
        "coordinates": [
          -35.73758807141765,
          2.6507354707563766
        ]
      }
    },
    {
      "type": "Feature",
      "properties": {
        "norad_id": 66493,
        "name": "STARLINK-35597",
        "group": "last-30-days",
        "lat": 1.353745552742094,
        "lon": -34.3478058023627,
        "alt_km": 414.6934827801024,
        "timestamp": "2025-12-08T23:34:02.739218+00:00",
        "meta_object_name": "STARLINK-35597",
        "meta_object_id": "2025-263J",
        "meta_epoch": "2025-12-08T14:00:01.999872",
        "meta_mean_motion": 15.50603843,
        "meta_eccentricity": 0.00015449,
        "meta_inclination": 43,
        "meta_ra_of_asc_node": 149.4375,
        "meta_arg_of_pericenter": 260.6661,
        "meta_mean_anomaly": 209.5046,
        "meta_ephemeris_type": 0,
        "meta_classification_type": "U",
        "meta_norad_cat_id": 66493,
        "meta_element_set_no": 999,
        "meta_rev_at_epoch": 496,
        "meta_bstar": -0.0016617128,
        "meta_mean_motion_dot": -0.00096718,
        "meta_mean_motion_ddot": 0,
        "tle_line1": "1 66493U 25263J   25342.58335648 -.00096718  00000+0 -16617-2 0  9999",
        "tle_line2": "2 66493  43.0000 149.4375 0001544 260.6661 209.5046 15.50603843  4961"
      },
      "geometry": {
        "type": "Point",
        "coordinates": [
          -34.3478058023627,
          1.353745552742094
        ]
      }
    },
    {
      "type": "Feature",
      "properties": {
        "norad_id": 66494,
        "name": "STARLINK-35689",
        "group": "last-30-days",
        "lat": 5.266384051030064,
        "lon": -38.55698779315609,
        "alt_km": 414.3335027916255,
        "timestamp": "2025-12-08T23:34:02.739229+00:00",
        "meta_object_name": "STARLINK-35689",
        "meta_object_id": "2025-263K",
        "meta_epoch": "2025-12-08T14:00:01.999872",
        "meta_mean_motion": 15.50597818,
        "meta_eccentricity": 0.00014526,
        "meta_inclination": 43.0002,
        "meta_ra_of_asc_node": 149.4519,
        "meta_arg_of_pericenter": 266.3796,
        "meta_mean_anomaly": 198.0367,
        "meta_ephemeris_type": 0,
        "meta_classification_type": "U",
        "meta_norad_cat_id": 66494,
        "meta_element_set_no": 999,
        "meta_rev_at_epoch": 496,
        "meta_bstar": -0.0013132438,
        "meta_mean_motion_dot": -0.00076684,
        "meta_mean_motion_ddot": 0,
        "tle_line1": "1 66494U 25263K   25342.58335648 -.00076684  00000+0 -13132-2 0  9999",
        "tle_line2": "2 66494  43.0002 149.4519 0001452 266.3796 198.0367 15.50597818  4966"
      },
      "geometry": {
        "type": "Point",
        "coordinates": [
          -38.55698779315609,
          5.266384051030064
        ]
      }
    },
    {
      "type": "Feature",
      "properties": {
        "norad_id": 66495,
        "name": "STARLINK-35832",
        "group": "last-30-days",
        "lat": 0.05029440489252624,
        "lon": -32.953212298659864,
        "alt_km": 415.229711130949,
        "timestamp": "2025-12-08T23:34:02.739241+00:00",
        "meta_object_name": "STARLINK-35832",
        "meta_object_id": "2025-263L",
        "meta_epoch": "2025-12-08T14:00:01.999872",
        "meta_mean_motion": 15.50589575,
        "meta_eccentricity": 0.00016486,
        "meta_inclination": 43.0001,
        "meta_ra_of_asc_node": 149.4329,
        "meta_arg_of_pericenter": 285.1374,
        "meta_mean_anomaly": 186.9383,
        "meta_ephemeris_type": 0,
        "meta_classification_type": "U",
        "meta_norad_cat_id": 66495,
        "meta_element_set_no": 999,
        "meta_rev_at_epoch": 496,
        "meta_bstar": -0.00083757319,
        "meta_mean_motion_dot": -0.00049189,
        "meta_mean_motion_ddot": 0,
        "tle_line1": "1 66495U 25263L   25342.58335648 -.00049189  00000+0 -83757-3 0  9991",
        "tle_line2": "2 66495  43.0001 149.4329 0001648 285.1374 186.9383 15.50589575  4968"
      },
      "geometry": {
        "type": "Point",
        "coordinates": [
          -32.953212298659864,
          0.05029440489252624
        ]
      }
    },
    {
      "type": "Feature",
      "properties": {
        "norad_id": 66496,
        "name": "STARLINK-35909",
        "group": "last-30-days",
        "lat": -1.2593728388045717,
        "lon": -31.552889897033243,
        "alt_km": 414.9955863163141,
        "timestamp": "2025-12-08T23:34:02.739252+00:00",
        "meta_object_name": "STARLINK-35909",
        "meta_object_id": "2025-263M",
        "meta_epoch": "2025-12-08T14:00:01.999872",
        "meta_mean_motion": 15.50586295,
        "meta_eccentricity": 0.00015601,
        "meta_inclination": 43.0001,
        "meta_ra_of_asc_node": 149.4274,
        "meta_arg_of_pericenter": 263.7456,
        "meta_mean_anomaly": 210.2643,
        "meta_ephemeris_type": 0,
        "meta_classification_type": "U",
        "meta_norad_cat_id": 66496,
        "meta_element_set_no": 999,
        "meta_rev_at_epoch": 496,
        "meta_bstar": -0.0010921512,
        "meta_mean_motion_dot": -0.00063909,
        "meta_mean_motion_ddot": 0,
        "tle_line1": "1 66496U 25263M   25342.58335648 -.00063909  00000+0 -10922-2 0  9991",
        "tle_line2": "2 66496  43.0001 149.4274 0001560 263.7456 210.2643 15.50586295  4960"
      },
      "geometry": {
        "type": "Point",
        "coordinates": [
          -31.552889897033243,
          -1.2593728388045717
        ]
      }
    },
    {
      "type": "Feature",
      "properties": {
        "norad_id": 66497,
        "name": "STARLINK-35899",
        "group": "last-30-days",
        "lat": -2.5632135714670667,
        "lon": -30.156173648355633,
        "alt_km": 415.4346869254605,
        "timestamp": "2025-12-08T23:34:02.739262+00:00",
        "meta_object_name": "STARLINK-35899",
        "meta_object_id": "2025-263N",
        "meta_epoch": "2025-12-08T14:00:01.999872",
        "meta_mean_motion": 15.5060258,
        "meta_eccentricity": 0.00017171,
        "meta_inclination": 43.0001,
        "meta_ra_of_asc_node": 149.4224,
        "meta_arg_of_pericenter": 279.7539,
        "meta_mean_anomaly": 196.1586,
        "meta_ephemeris_type": 0,
        "meta_classification_type": "U",
        "meta_norad_cat_id": 66497,
        "meta_element_set_no": 999,
        "meta_rev_at_epoch": 496,
        "meta_bstar": -0.0014080881,
        "meta_mean_motion_dot": -0.00082157,
        "meta_mean_motion_ddot": 0,
        "tle_line1": "1 66497U 25263N   25342.58335648 -.00082157  00000+0 -14081-2 0  9998",
        "tle_line2": "2 66497  43.0001 149.4224 0001717 279.7539 196.1586 15.50602580  4963"
      },
      "geometry": {
        "type": "Point",
        "coordinates": [
          -30.156173648355633,
          -2.5632135714670667
        ]
      }
    }
  ]
}